MALLIGYONG-1            
1 58400U 23179A   24230.87047077  .00012807  00000+0  56152-3 0  9999
2 58400  97.3949 116.6773 0001809  46.2784 313.8602 15.22114326 41106
